0 COSMOS 2251 DEB
1 34401U 93036QS  13281.74049247  .00003104  00000-0  87569-3 0  9564
2 34401 074.0527 115.3437 0077970 228.3089 258.4384 14.44388308244541
0 COSMOS 2251 DEB
1 34401U 93036QS  13283.32114782  .00004416  00000-0  12418-2 0  9575
2 34401 074.0527 112.4046 0077902 225.0035 197.5447 14.44405065244773
0 COSMOS 2251 DEB
1 34401U 93036QS  13285.32995240  .00004400  00000-0  12369-2 0  9582
2 34401 074.0526 108.6704 0077855 220.7993 203.0611 14.44417970245069
0 COSMOS 2251 DEB
1 34401U 93036QS  13287.33944869  .00005207  00000-0  14617-2 0  9591
2 34401 074.0522 104.9338 0077793 216.6090 212.2658 14.44433679245359
0 COSMOS 2251 DEB
1 34401U 93036QS  13289.48937657  .00006959  00000-0  19495-2 0  9602
2 34401 074.0520 100.9356 0077665 212.1257 231.8646 14.44459812245662
0 COSMOS 2251 DEB
1 34401U 93036QS  13291.49338906  .00006509  00000-0  18235-2 0  9611
2 34401 074.0526 097.2089 0077565 207.9780 212.8438 14.44481592245951
0 COSMOS 2251 DEB
1 34401U 93036QS  13293.50078497  .00007354  00000-0  20581-2 0  9628
2 34401 074.0533 093.4761 0077492 203.8564 211.5496 14.44505671246246
0 COSMOS 2251 DEB
1 34401U 93036QS  13295.51536594  .00008958  00000-0  25037-2 0  9631
2 34401 074.0537 089.7296 0077371 199.6621 247.8507 14.44529531246531
